GLOBALSTAR M094         
1 39074U 13005C   25282.12254360 -.00000080  00000+0  13501-3 0  9995
2 39074  51.9948 195.2166 0000725  86.4659 273.6290 12.62264092586768
GLOBALSTAR M096         
1 39075U 13005D   25282.13575955 -.00000097  00000+0  37930-4 0  9994
2 39075  52.0061 243.7802 0000627  86.4516 273.6423 12.62267415585686
GLOBALSTAR M078         
1 39076U 13005E   25282.10979191  .00000014  00000+0  65622-3 0  9998
2 39076  51.9890 328.2191 0001281  80.8443 279.2568 12.62261008584301
GLOBALSTAR M095         
1 39077U 13005F   25282.05660375 -.00000076  00000+0  15661-3 0  9991
2 39077  52.0094 325.6274 0000889 106.4937 253.6028 12.62260547584156
GLOBALSTAR M087         
1 52888U 22064A   25281.99079337 -.00000102  00000+0  12035-4 0  9998
2 52888  51.9974 107.2078 0001022  98.2131 261.8851 12.62289289159412
